{"type": "FeatureCollection", "features": [ {"type": "Feature", "properties": {"norad_id": 30814, "name": "FENGYUN 1C DEB", "group": "fengyun-1c-debris", "lat": -69.45553909750234, "lon": 118.00825815004933, "alt_km": 678.6590271977102, "timestamp": "2025-12-12T20:43:07.313912+00:00", "meta": {"OBJECT_NAME": "FENGYUN 1C DEB", "OBJECT_ID": "1999-025AUY", "EPOCH": "2025-12-12T05:21:45.234144", "MEAN_MOTION": 14.60416467, "ECCENTRICITY": 0.00304007, "INCLINATION": 99.0819, "RA_OF_ASC_NODE": 322.5729, "ARG_OF_PERICENTER": 234.3743, "MEAN_ANOMALY": 254.9301, "EPHEMERIS_TYPE": 0, "CLASSIFICATION_TYPE": "U", "NORAD_CAT_ID": 30814, "ELEMENT_SET_NO": 999, "REV_AT_EPOCH": 97734, "BSTAR": 0.0042124133, "MEAN_MOTION_DOT": 0.00020534, "MEAN_MOTION_DDOT": 0}, "tle": {"line1": "1 30814U 99025AUY 25346.22344021  .00020534  00000+0  42124-2 0  9997", "line2": "2 30814  99.0819 322.5729 0030400 234.3743 254.9301 14.60416467977340"}}, "geometry": {"type": "Point", "coordinates": [118.00825815004933, -69.45553909750234]}}, {"type": "Feature", "properties": {"norad_id": 30815, "name": "FENGYUN 1C DEB", "group": "fengyun-1c-debris", "lat": -75.9031217497818, "lon": -176.46965091095151, "alt_km": 655.2346327555579, "timestamp": "2025-12-12T20:43:07.313922+00:00", "meta": {"OBJECT_NAME": "FENGYUN 1C DEB", "OBJECT_ID": "1999-025AUZ", "EPOCH": "2025-12-11T21:20:43.639008", "MEAN_MOTION": 14.7349611, "ECCENTRICITY": 0.0002498, "INCLINATION": 99.3017, "RA_OF_ASC_NODE": 141.6736, "ARG_OF_PERICENTER": 278.1039, "MEAN_ANOMALY": 239.3721, "EPHEMERIS_TYPE": 0, "CLASSIFICATION_TYPE": "U", "NORAD_CAT_ID": 30815, "ELEMENT_SET_NO": 999, "REV_AT_EPOCH": 97767, "BSTAR": 0.0056589, "MEAN_MOTION_DOT": 0.00036902, "MEAN_MOTION_DDOT": 0}, "tle": {"line1": "1 30815U 99025AUZ 25345.88939397  .00036902  00000+0  56589-2 0  9991", "line2": "2 30815  99.3017 141.6736 0002498 278.1039 239.3721 14.73496110977678"}}, "geometry": {"type": "Point", "coordinates": [-176.46965091095151, -75.9031217497818]}}, {"type": "Feature", "properties": {"norad_id": 30816, "name": "FENGYUN 1C DEB", "group": "fengyun-1c-debris", "lat": -52.89119044986748, "lon": -134.63136733500883, "alt_km": 876.8184311947161, "timestamp": "2025-12-12T20:43:07.313933+00:00", "meta": {"OBJECT_NAME": "FENGYUN 1C DEB", "OBJECT_ID": "1999-025AVA", "EPOCH": "2025-12-12T04:39:31.224096", "MEAN_MOTION": 14.18003155, "ECCENTRICITY": 0.005242, "INCLINATION": 98.9145, "RA_OF_ASC_NODE": 56.6708, "ARG_OF_PERICENTER": 56.893, "MEAN_ANOMALY": 2.7743, "EPHEMERIS_TYPE": 0, "CLASSIFICATION_TYPE": "U", "NORAD_CAT_ID": 30816, "ELEMENT_SET_NO": 999, "REV_AT_EPOCH": 96386, "BSTAR": 0.0024397141, "MEAN_MOTION_DOT": 5.023e-05, "MEAN_MOTION_DDOT": 0}, "tle": {"line1": "1 30816U 99025AVA 25346.19411139  .00005023  00000+0  24397-2 0  9998", "line2": "2 30816  98.9145  56.6708 0052420  56.8930   2.7743 14.18003155963865"}}, "geometry": {"type": "Point", "coordinates": [-134.63136733500883, -52.89119044986748]}}, {"type": "Feature", "properties": {"norad_id": 30817, "name": "FENGYUN 1C DEB", "group": "fengyun-1c-debris", "lat": -48.72611904721494, "lon": -12.781144313829994, "alt_km": 880.9902330031082, "timestamp": "2025-12-12T20:43:07.313943+00:00", "meta": {"OBJECT_NAME": "FENGYUN 1C DEB", "OBJECT_ID": "1999-025AVB", "EPOCH": "2025-12-11T22:40:04.945152", "MEAN_MOTION": 14.0071979, "ECCENTRICITY": 0.0057375, "INCLINATION": 98.7858, "RA_OF_ASC_NODE": 336.1871, "ARG_OF_PERICENTER": 247.0468, "MEAN_ANOMALY": 112.4637, "EPHEMERIS_TYPE": 0, "CLASSIFICATION_TYPE": "U", "NORAD_CAT_ID": 30817, "ELEMENT_SET_NO": 999, "REV_AT_EPOCH": 95898, "BSTAR": 0.00037474, "MEAN_MOTION_DOT": 5.24e-06, "MEAN_MOTION_DDOT": 0}, "tle": {"line1": "1 30817U 99025AVB 25345.94450168  .00000524  00000+0  37474-3 0  9998", "line2": "2 30817  98.7858 336.1871 0057375 247.0468 112.4637 14.00719790958984"}}, "geometry": {"type": "Point", "coordinates": [-12.781144313829994, -48.72611904721494]}}, {"type": "Feature", "properties": {"norad_id": 30820, "name": "FENGYUN 1C DEB", "group": "fengyun-1c-debris", "lat": -3.6821120975564767, "lon": -97.40211588423847, "alt_km": 786.550137605408, "timestamp": "2025-12-12T20:43:07.313953+00:00", "meta": {"OBJECT_NAME": "FENGYUN 1C DEB", "OBJECT_ID": "1999-025AVE", "EPOCH": "2025-12-12T06:41:19.201344", "MEAN_MOTION": 14.21396113, "ECCENTRICITY": 0.00520883, "INCLINATION": 98.6751, "RA_OF_ASC_NODE": 82.5865, "ARG_OF_PERICENTER": 188.5067, "MEAN_ANOMALY": 245.4791, "EPHEMERIS_TYPE": 0, "CLASSIFICATION_TYPE": "U", "NORAD_CAT_ID": 30820, "ELEMENT_SET_NO": 999, "REV_AT_EPOCH": 96417, "BSTAR": 0.0031181908, "MEAN_MOTION_DOT": 6.867e-05, "MEAN_MOTION_DDOT": 0}, "tle": {"line1": "1 30820U 99025AVE 25346.27869446  .00006867  00000+0  31182-2 0  9997", "line2": "2 30820  98.6751  82.5865 0052088 188.5067 245.4791 14.21396113964173"}}, "geometry": {"type": "Point", "coordinates": [-97.40211588423847, -3.6821120975564767]}}, {"type": "Feature", "properties": {"norad_id": 30821, "name": "FENGYUN 1C DEB", "group": "fengyun-1c-debris", "lat": -65.66198548064108, "lon": -71.3120057985239, "alt_km": 687.8775323755917, "timestamp": "2025-12-12T20:43:07.313963+00:00", "meta": {"OBJECT_NAME": "FENGYUN 1C DEB", "OBJECT_ID": "1999-025AVF", "EPOCH": "2025-12-11T09:05:13.802208", "MEAN_MOTION": 14.4964684, "ECCENTRICITY": 0.00863832, "INCLINATION": 99.103, "RA_OF_ASC_NODE": 127.847, "ARG_OF_PERICENTER": 210.0047, "MEAN_ANOMALY": 213.0337, "EPHEMERIS_TYPE": 0, "CLASSIFICATION_TYPE": "U", "NORAD_CAT_ID": 30821, "ELEMENT_SET_NO": 999, "REV_AT_EPOCH": 98769, "BSTAR": 0.0017050443, "MEAN_MOTION_DOT": 6.825e-05, "MEAN_MOTION_DDOT": 0}, "tle": {"line1": "1 30821U 99025AVF 25345.37863197  .00006825  00000+0  17050-2 0  9997", "line2": "2 30821  99.1030 127.8470 0086383 210.0047 213.0337 14.49646840987693"}}, "geometry": {"type": "Point", "coordinates": [-71.3120057985239, -65.66198548064108]}}, {"type": "Feature", "properties": {"norad_id": 30822, "name": "FENGYUN 1C DEB", "group": "fengyun-1c-debris", "lat": 35.53538925767086, "lon": -158.7718319520418, "alt_km": 893.3209560703262, "timestamp": "2025-12-12T20:43:07.313973+00:00", "meta": {"OBJECT_NAME": "FENGYUN 1C DEB", "OBJECT_ID": "1999-025AVG", "EPOCH": "2025-12-12T01:27:15.977376", "MEAN_MOTION": 14.11340362, "ECCENTRICITY": 0.00731108, "INCLINATION": 98.7354, "RA_OF_ASC_NODE": 14.1426, "ARG_OF_PERICENTER": 287.2744, "MEAN_ANOMALY": 101.1589, "EPHEMERIS_TYPE": 0, "CLASSIFICATION_TYPE": "U", "NORAD_CAT_ID": 30822, "ELEMENT_SET_NO": 999, "REV_AT_EPOCH": 96692, "BSTAR": 0.00048556191, "MEAN_MOTION_DOT": 8.57e-06, "MEAN_MOTION_DDOT": 0}, "tle": {"line1": "1 30822U 99025AVG 25346.06060159  .00000857  00000+0  48556-3 0  9997", "line2": "2 30822  98.7354  14.1426 0073110 287.2744 101.1589 14.11340362966929"}}, "geometry": {"type": "Point", "coordinates": [-158.7718319520418, 35.53538925767086]}}, {"type": "Feature", "properties": {"norad_id": 30823, "name": "FENGYUN 1C DEB", "group": "fengyun-1c-debris", "lat": -55.9288874943706, "lon": -65.31363133772325, "alt_km": 978.2106243412945, "timestamp": "2025-12-12T20:43:07.313984+00:00", "meta": {"OBJECT_NAME": "FENGYUN 1C DEB", "OBJECT_ID": "1999-025AVH", "EPOCH": "2025-12-12T04:47:25.078848", "MEAN_MOTION": 14.0255544, "ECCENTRICITY": 0.01341188, "INCLINATION": 98.7628, "RA_OF_ASC_NODE": 127.2306, "ARG_OF_PERICENTER": 86.0996, "MEAN_ANOMALY": 40.847, "EPHEMERIS_TYPE": 0, "CLASSIFICATION_TYPE": "U", "NORAD_CAT_ID": 30823, "ELEMENT_SET_NO": 999, "REV_AT_EPOCH": 96026, "BSTAR": 0.00062451814, "MEAN_MOTION_DOT": 1e-05, "MEAN_MOTION_DDOT": 0}, "tle": {"line1": "1 30823U 99025AVH 25346.19959582  .00001000  00000+0  62452-3 0  9991", "line2": "2 30823  98.7628 127.2306 0134118  86.0996  40.8470 14.02555440960261"}}, "geometry": {"type": "Point", "coordinates": [-65.31363133772325, -55.9288874943706]}}, {"type": "Feature", "properties": {"norad_id": 30826, "name": "FENGYUN 1C DEB", "group": "fengyun-1c-debris", "lat": 35.41608629758718, "lon": 175.51318989839342, "alt_km": 540.7258931203287, "timestamp": "2025-12-12T20:43:07.313994+00:00", "meta": {"OBJECT_NAME": "FENGYUN 1C DEB", "OBJECT_ID": "1999-025AVL", "EPOCH": "2025-12-11T12:17:36.202848", "MEAN_MOTION": 14.82215968, "ECCENTRICITY": 0.01454791, "INCLINATION": 98.8672, "RA_OF_ASC_NODE": 180.3905, "ARG_OF_PERICENTER": 0.7589, "MEAN_ANOMALY": 29.2235, "EPHEMERIS_TYPE": 0, "CLASSIFICATION_TYPE": "U", "NORAD_CAT_ID": 30826, "ELEMENT_SET_NO": 999, "REV_AT_EPOCH": 268, "BSTAR": 0.00088628701, "MEAN_MOTION_DOT": 8.436e-05, "MEAN_MOTION_DDOT": 0}, "tle": {"line1": "1 30826U 99025AVL 25345.51222457  .00008436  00000+0  88629-3 0  9997", "line2": "2 30826  98.8672 180.3905 0145479   0.7589  29.2235 14.82215968  2681"}}, "geometry": {"type": "Point", "coordinates": [175.51318989839342, 35.41608629758718]}}, {"type": "Feature", "properties": {"norad_id": 30827, "name": "FENGYUN 1C DEB", "group": "fengyun-1c-debris", "lat": 12.052628937287528, "lon": 154.2258334659992, "alt_km": 736.4435901762736, "timestamp": "2025-12-12T20:43:07.314004+00:00", "meta": {"OBJECT_NAME": "FENGYUN 1C DEB", "OBJECT_ID": "1999-025AVM", "EPOCH": "2025-12-11T05:31:34.049280", "MEAN_MOTION": 14.37749293, "ECCENTRICITY": 0.00435959, "INCLINATION": 99.0037, "RA_OF_ASC_NODE": 330.5761, "ARG_OF_PERICENTER": 183.204, "MEAN_ANOMALY": 176.8873, "EPHEMERIS_TYPE": 0, "CLASSIFICATION_TYPE": "U", "NORAD_CAT_ID": 30827, "ELEMENT_SET_NO": 999, "REV_AT_EPOCH": 96527, "BSTAR": 0.0040350501, "MEAN_MOTION_DOT": 0.00012251, "MEAN_MOTION_DDOT": 0}, "tle": {"line1": "1 30827U 99025AVM 25345.23025520  .00012251  00000+0  40351-2 0  9998", "line2": "2 30827  99.0037 330.5761 0043595 183.2040 176.8873 14.37749293965277"}}, "geometry": {"type": "Point", "coordinates": [154.2258334659992, 12.052628937287528]}}]}